{"type": "FeatureCollection", "features": [{"type": "Feature", "properties": {"norad_id": 26766, "name": "INTELSAT 10 (IS-10)", "group": "intelsat", "lat": 6.356536468872864, "lon": -166.0511803599345, "alt_km": 36126.99734658003, "timestamp": "2025-12-18T23:35:48.714700+00:00", "meta": {"OBJECT_NAME": "INTELSAT 10 (IS-10)", "OBJECT_ID": "2001-019A", "EPOCH": "2025-12-18T14:52:33.938400", "MEAN_MOTION": 0.99076086, "ECCENTRICITY": 0.00076796, "INCLINATION": 8.6428, "RA_OF_ASC_NODE": 61.0982, "ARG_OF_PERICENTER": 228.2335, "MEAN_ANOMALY": 134.7719, "EPHEMERIS_TYPE": 0, "CLASSIFICATION_TYPE": "U", "NORAD_CAT_ID": 26766, "ELEMENT_SET_NO": 999, "REV_AT_EPOCH": 4379, "BSTAR": 0, "MEAN_MOTION_DOT": -1.62e-06, "MEAN_MOTION_DDOT": 0}, "tle": {"line1": "1 26766U 01019A   25352.61983725 -.00000162  00000+0  00000+0 0  9994", "line2": "2 26766   8.6428  61.0982 0007679 228.2335 134.7719  0.99076086 43797"}}, "geometry": {"type": "Point", "coordinates": [-166.0511803599345, 6.356536468872864]}}, {"type": "Feature", "properties": {"norad_id": 26900, "name": "INTELSAT 902 (IS-902)", "group": "intelsat", "lat": -3.793132041974655, "lon": 31.842548724418386, "alt_km": 35798.949592625846, "timestamp": "2025-12-18T23:35:48.714724+00:00", "meta": {"OBJECT_NAME": "INTELSAT 902 (IS-902)", "OBJECT_ID": "2001-039A", "EPOCH": "2025-12-15T13:09:02.081664", "MEAN_MOTION": 1.0027087, "ECCENTRICITY": 0.00045028, "INCLINATION": 5.6536, "RA_OF_ASC_NODE": 74.0372, "ARG_OF_PERICENTER": 189.6359, "MEAN_ANOMALY": 327.9329, "EPHEMERIS_TYPE": 0, "CLASSIFICATION_TYPE": "U", "NORAD_CAT_ID": 26900, "ELEMENT_SET_NO": 999, "REV_AT_EPOCH": 8885, "BSTAR": 0, "MEAN_MOTION_DOT": -2.65e-06, "MEAN_MOTION_DDOT": 0}, "tle": {"line1": "1 26900U 01039A   25349.54794076 -.00000265  00000+0  00000+0 0  9997", "line2": "2 26900   5.6536  74.0372 0004502 189.6359 327.9329  1.00270870 88858"}}, "geometry": {"type": "Point", "coordinates": [31.842548724418386, -3.793132041974655]}}, {"type": "Feature", "properties": {"norad_id": 27380, "name": "INTELSAT 904 (IS-904)", "group": "intelsat", "lat": -2.3007876503759914, "lon": 50.427820798248035, "alt_km": 35786.900554309555, "timestamp": "2025-12-18T23:35:48.714740+00:00", "meta": {"OBJECT_NAME": "INTELSAT 904 (IS-904)", "OBJECT_ID": "2002-007A", "EPOCH": "2025-12-18T11:25:59.877408", "MEAN_MOTION": 1.00271566, "ECCENTRICITY": 0.0001708, "INCLINATION": 6.4682, "RA_OF_ASC_NODE": 71.3668, "ARG_OF_PERICENTER": 246.0114, "MEAN_ANOMALY": 269.9605, "EPHEMERIS_TYPE": 0, "CLASSIFICATION_TYPE": "U", "NORAD_CAT_ID": 27380, "ELEMENT_SET_NO": 999, "REV_AT_EPOCH": 4995, "BSTAR": 0, "MEAN_MOTION_DOT": -2.06e-06, "MEAN_MOTION_DDOT": 0}, "tle": {"line1": "1 27380U 02007A   25352.47638747 -.00000206  00000+0  00000+0 0  9999", "line2": "2 27380   6.4682  71.3668 0001708 246.0114 269.9605  1.00271566 49955"}}, "geometry": {"type": "Point", "coordinates": [50.427820798248035, -2.3007876503759914]}}, {"type": "Feature", "properties": {"norad_id": 27426, "name": "DIRECTV 5 (TEMPO 1)", "group": "intelsat", "lat": -4.260484176080471, "lon": -28.339611642409288, "alt_km": 35776.6053903187, "timestamp": "2025-12-18T23:35:48.714753+00:00", "meta": {"OBJECT_NAME": "DIRECTV 5 (TEMPO 1)", "OBJECT_ID": "2002-023A", "EPOCH": "2025-12-18T12:57:07.933824", "MEAN_MOTION": 1.00272746, "ECCENTRICITY": 0.00034092, "INCLINATION": 4.4162, "RA_OF_ASC_NODE": 77.586, "ARG_OF_PERICENTER": 206.8472, "MEAN_ANOMALY": 247.1379, "EPHEMERIS_TYPE": 0, "CLASSIFICATION_TYPE": "U", "NORAD_CAT_ID": 27426, "ELEMENT_SET_NO": 999, "REV_AT_EPOCH": 8631, "BSTAR": 0, "MEAN_MOTION_DOT": -3.6e-07, "MEAN_MOTION_DDOT": 0}, "tle": {"line1": "1 27426U 02023A   25352.53967516 -.00000036  00000+0  00000+0 0  9995", "line2": "2 27426   4.4162  77.5860 0003409 206.8472 247.1379  1.00272746 86318"}}, "geometry": {"type": "Point", "coordinates": [-28.339611642409288, -4.260484176080471]}}, {"type": "Feature", "properties": {"norad_id": 27438, "name": "INTELSAT 905 (IS-905)", "group": "intelsat", "lat": -5.024362668127154, "lon": -55.571916116514934, "alt_km": 35777.25324823553, "timestamp": "2025-12-18T23:35:48.714766+00:00", "meta": {"OBJECT_NAME": "INTELSAT 905 (IS-905)", "OBJECT_ID": "2002-027A", "EPOCH": "2025-12-18T14:47:43.747584", "MEAN_MOTION": 1.00272032, "ECCENTRICITY": 0.00026536, "INCLINATION": 6.2996, "RA_OF_ASC_NODE": 71.9887, "ARG_OF_PERICENTER": 199.262, "MEAN_ANOMALY": 260.947, "EPHEMERIS_TYPE": 0, "CLASSIFICATION_TYPE": "U", "NORAD_CAT_ID": 27438, "ELEMENT_SET_NO": 999, "REV_AT_EPOCH": 4955, "BSTAR": 0, "MEAN_MOTION_DOT": 1.13e-06, "MEAN_MOTION_DDOT": 0}, "tle": {"line1": "1 27438U 02027A   25352.61647856  .00000113  00000+0  00000+0 0  9998", "line2": "2 27438   6.2996  71.9887 0002653 199.2620 260.9470  1.00272032 49551"}}, "geometry": {"type": "Point", "coordinates": [-55.571916116514934, -5.024362668127154]}}, {"type": "Feature", "properties": {"norad_id": 27445, "name": "GALAXY 3C (G-3C)", "group": "intelsat", "lat": -3.2766136928419654, "lon": -13.083057381092981, "alt_km": 35791.22361232931, "timestamp": "2025-12-18T23:35:48.714778+00:00", "meta": {"OBJECT_NAME": "GALAXY 3C (G-3C)", "OBJECT_ID": "2002-030A", "EPOCH": "2025-12-18T14:33:26.923104", "MEAN_MOTION": 1.00271936, "ECCENTRICITY": 0.0001144, "INCLINATION": 3.2778, "RA_OF_ASC_NODE": 80.4479, "ARG_OF_PERICENTER": 77.3007, "MEAN_ANOMALY": 53.2192, "EPHEMERIS_TYPE": 0, "CLASSIFICATION_TYPE": "U", "NORAD_CAT_ID": 27445, "ELEMENT_SET_NO": 999, "REV_AT_EPOCH": 4468, "BSTAR": 0, "MEAN_MOTION_DOT": -1.3e-06, "MEAN_MOTION_DDOT": 0}, "tle": {"line1": "1 27445U 02030A   25352.60656161 -.00000130  00000+0  00000+0 0  9998", "line2": "2 27445   3.2778  80.4479 0001144  77.3007  53.2192  1.00271936 44680"}}, "geometry": {"type": "Point", "coordinates": [-13.083057381092981, -3.2766136928419654]}}, {"type": "Feature", "properties": {"norad_id": 27513, "name": "INTELSAT 906 (IS-906)", "group": "intelsat", "lat": 5.058947590946583, "lon": 145.7784194151707, "alt_km": 35801.057391646806, "timestamp": "2025-12-18T23:35:48.714791+00:00", "meta": {"OBJECT_NAME": "INTELSAT 906 (IS-906)", "OBJECT_ID": "2002-041A", "EPOCH": "2025-12-18T08:27:45.689760", "MEAN_MOTION": 1.00272436, "ECCENTRICITY": 0.00063032, "INCLINATION": 5.3436, "RA_OF_ASC_NODE": 75.1654, "ARG_OF_PERICENTER": 197.1731, "MEAN_ANOMALY": 5.944, "EPHEMERIS_TYPE": 0, "CLASSIFICATION_TYPE": "U", "NORAD_CAT_ID": 27513, "ELEMENT_SET_NO": 999, "REV_AT_EPOCH": 8521, "BSTAR": 0, "MEAN_MOTION_DOT": 3.3e-07, "MEAN_MOTION_DDOT": 0}, "tle": {"line1": "1 27513U 02041A   25352.35261215  .00000033  00000+0  00000+0 0  9991", "line2": "2 27513   5.3436  75.1654 0006303 197.1731   5.9440  1.00272436 85213"}}, "geometry": {"type": "Point", "coordinates": [145.7784194151707, 5.058947590946583]}}, {"type": "Feature", "properties": {"norad_id": 27954, "name": "GALAXY 13 (HORIZONS-1)", "group": "intelsat", "lat": -0.4319184766601542, "lon": -68.21467791362257, "alt_km": 35778.608096346514, "timestamp": "2025-12-18T23:35:48.714804+00:00", "meta": {"OBJECT_NAME": "GALAXY 13 (HORIZONS-1)", "OBJECT_ID": "2003-044A", "EPOCH": "2025-12-18T13:32:54.062304", "MEAN_MOTION": 1.00267702, "ECCENTRICITY": 0.00023572, "INCLINATION": 0.9513, "RA_OF_ASC_NODE": 86.3958, "ARG_OF_PERICENTER": 175.0411, "MEAN_ANOMALY": 239.2128, "EPHEMERIS_TYPE": 0, "CLASSIFICATION_TYPE": "U", "NORAD_CAT_ID": 27954, "ELEMENT_SET_NO": 999, "REV_AT_EPOCH": 4476, "BSTAR": 0, "MEAN_MOTION_DOT": 1.57e-06, "MEAN_MOTION_DDOT": 0}, "tle": {"line1": "1 27954U 03044A   25352.56451461  .00000157  00000+0  00000+0 0  9998", "line2": "2 27954   0.9513  86.3958 0002357 175.0411 239.2128  1.00267702 44765"}}, "geometry": {"type": "Point", "coordinates": [-68.21467791362257, -0.4319184766601542]}}, {"type": "Feature", "properties": {"norad_id": 28358, "name": "INTELSAT 10-02", "group": "intelsat", "lat": 0.020992933020178163, "lon": 80.82596663527055, "alt_km": 35789.012605632815, "timestamp": "2025-12-18T23:35:48.714829+00:00", "meta": {"OBJECT_NAME": "INTELSAT 10-02", "OBJECT_ID": "2004-022A", "EPOCH": "2025-12-18T13:17:26.701728", "MEAN_MOTION": 1.00271255, "ECCENTRICITY": 8.937e-05, "INCLINATION": 0.0207, "RA_OF_ASC_NODE": 69.131, "ARG_OF_PERICENTER": 233.9909, "MEAN_ANOMALY": 342.6942, "EPHEMERIS_TYPE": 0, "CLASSIFICATION_TYPE": "U", "NORAD_CAT_ID": 28358, "ELEMENT_SET_NO": 999, "REV_AT_EPOCH": 7874, "BSTAR": 0, "MEAN_MOTION_DOT": 1.4e-07, "MEAN_MOTION_DDOT": 0}, "tle": {"line1": "1 28358U 04022A   25352.55378127  .00000014  00000+0  00000+0 0  9992", "line2": "2 28358   0.0207  69.1310 0000893 233.9909 342.6942  1.00271255 78741"}}, "geometry": {"type": "Point", "coordinates": [80.82596663527055, 0.020992933020178163]}}, {"type": "Feature", "properties": {"norad_id": 28626, "name": "XM-3 (RHYTHM)", "group": "intelsat", "lat": 0.18864863164290102, "lon": 166.4234611857136, "alt_km": 36168.305328392504, "timestamp": "2025-12-18T23:35:48.714852+00:00", "meta": {"OBJECT_NAME": "XM-3 (RHYTHM)", "OBJECT_ID": "2005-008A", "EPOCH": "2025-12-18T13:42:24.310944", "MEAN_MOTION": 0.98950295, "ECCENTRICITY": 0.0001857, "INCLINATION": 0.1893, "RA_OF_ASC_NODE": 81.9084, "ARG_OF_PERICENTER": 277.9759, "MEAN_ANOMALY": 19.7481, "EPHEMERIS_TYPE": 0, "CLASSIFICATION_TYPE": "U", "NORAD_CAT_ID": 28626, "ELEMENT_SET_NO": 999, "REV_AT_EPOCH": 4080, "BSTAR": 0, "MEAN_MOTION_DOT": 3.5e-07, "MEAN_MOTION_DDOT": 0}, "tle": {"line1": "1 28626U 05008A   25352.57111471  .00000035  00000+0  00000+0 0  9997", "line2": "2 28626   0.1893  81.9084 0001857 277.9759  19.7481  0.98950295 40803"}}, "geometry": {"type": "Point", "coordinates": [166.4234611857136, 0.18864863164290102]}}]}